IRIDIUM 159             
1 43578U 18061K   23265.81872572  .00000409  00000+0  13908-3 0  9997
2 43578  86.3929 113.9925 0002150  87.0982 273.0460 14.34222380270288
IRIDIUM 180             
1 43922U 19002A   23265.88799543  .00000544  00000+0  18726-3 0  9992
2 43922  86.3960  50.7923 0001966  97.7477 262.3942 14.34217159245908
IRIDIUM 176             
1 43923U 19002B   23265.91727723  .00001998  00000+0  31294-3 0  9997
2 43923  86.6093  50.8151 0002184  86.8623 273.2844 14.72249028252371
IRIDIUM 168             
1 43924U 19002C   23265.88165353  .00000507  00000+0  17389-3 0  9993
2 43924  86.3964  50.8442 0002039  94.9487 265.1941 14.34219096245882
IRIDIUM 173             
1 43925U 19002D   23265.93874142  .00000522  00000+0  17923-3 0  9994
2 43925  86.3959  50.7499 0002130  93.4143 266.7296 14.34220265245883
IRIDIUM 169             
1 43926U 19002E   23265.91824505  .00000235  00000+0  70406-4 0  9998
2 43926  86.4169  82.3917 0004749  54.5591 305.6050 14.38606301246703
IRIDIUM 172             
1 43927U 19002F   23265.44401505  .00000059  00000+0  13862-4 0  9995
2 43927  86.3959  50.9619 0002039  95.6815 264.4613 14.34216551245813
IRIDIUM 175             
1 43928U 19002G   23265.84311689  .00002047  00000+0  32075-3 0  9998
2 43928  86.1528  39.1567 0002247  92.8960 267.2513 14.72232800252350
